{
  "type": "FeatureCollection",
  "features": [
    {
      "type": "Feature",
      "properties": {
        "norad_id": 45358,
        "name": "COSMOS 2545 (760)",
        "group": "gnss",
        "lat": -24.302085166218724,
        "lon": 151.14810932061715,
        "alt_km": 19111.645267739936,
        "timestamp": "2025-12-20T05:41:50.273857+00:00",
        "meta_object_name": "COSMOS 2545 (760)",
        "meta_object_id": "2020-018A",
        "meta_epoch": "2025-12-19T00:41:16.420128",
        "meta_mean_motion": 2.13102611,
        "meta_eccentricity": 0.0011548,
        "meta_inclination": 64.4657,
        "meta_ra_of_asc_node": 318.7488,
        "meta_arg_of_pericenter": 249.6698,
        "meta_mean_anomaly": 110.1972,
        "meta_ephemeris_type": 0,
        "meta_classification_type": "U",
        "meta_norad_cat_id": 45358,
        "meta_element_set_no": 999,
        "meta_rev_at_epoch": 4482,
        "meta_bstar": 0,
        "meta_mean_motion_dot": -6.1e-07,
        "meta_mean_motion_ddot": 0,
        "tle_line1": "1 45358U 20018A   25353.02866227 -.00000061  00000+0  00000+0 0  9993",
        "tle_line2": "2 45358  64.4657 318.7488 0011548 249.6698 110.1972  2.13102611 44827"
      },
      "geometry": {
        "type": "Point",
        "coordinates": [
          151.14810932061715,
          -24.302085166218724
        ]
      }
    },
    {
      "type": "Feature",
      "properties": {
        "norad_id": 45807,
        "name": "BEIDOU-3 G3 (C61)",
        "group": "gnss",
        "lat": -1.2731302098315975,
        "lon": -74.98655068525953,
        "alt_km": 35787.1261759721,
        "timestamp": "2025-12-20T05:41:50.273875+00:00",
        "meta_object_name": "BEIDOU-3 G3 (C61)",
        "meta_object_id": "2020-040A",
        "meta_epoch": "2025-12-19T15:57:04.317984",
        "meta_mean_motion": 1.0027087,
        "meta_eccentricity": 0.00064381,
        "meta_inclination": 2.0073,
        "meta_ra_of_asc_node": 66.6426,
        "meta_arg_of_pericenter": 309.3483,
        "meta_mean_anomaly": 62.3662,
        "meta_ephemeris_type": 0,
        "meta_classification_type": "U",
        "meta_norad_cat_id": 45807,
        "meta_element_set_no": 999,
        "meta_rev_at_epoch": 2027,
        "meta_bstar": 0,
        "meta_mean_motion_dot": -3.31e-06,
        "meta_mean_motion_ddot": 0,
        "tle_line1": "1 45807U 20040A   25353.66463331 -.00000331  00000+0  00000+0 0  9996",
        "tle_line2": "2 45807   2.0073  66.6426 0006438 309.3483  62.3662  1.00270870 20270"
      },
      "geometry": {
        "type": "Point",
        "coordinates": [
          -74.98655068525953,
          -1.2731302098315975
        ]
      }
    },
    {
      "type": "Feature",
      "properties": {
        "norad_id": 45854,
        "name": "GPS BIII-3  (PRN 23)",
        "group": "gnss",
        "lat": -1.4239734749560424,
        "lon": 34.97356111540239,
        "alt_km": 20328.120100305856,
        "timestamp": "2025-12-20T05:41:50.273896+00:00",
        "meta_object_name": "GPS BIII-3  (PRN 23)",
        "meta_object_id": "2020-041A",
        "meta_epoch": "2025-12-19T05:46:39.794304",
        "meta_mean_motion": 2.00561972,
        "meta_eccentricity": 0.006061,
        "meta_inclination": 56.5512,
        "meta_ra_of_asc_node": 35.9326,
        "meta_arg_of_pericenter": 203.6529,
        "meta_mean_anomaly": 154.7875,
        "meta_ephemeris_type": 0,
        "meta_classification_type": "U",
        "meta_norad_cat_id": 45854,
        "meta_element_set_no": 999,
        "meta_rev_at_epoch": 4042,
        "meta_bstar": 0,
        "meta_mean_motion_dot": -6.4e-07,
        "meta_mean_motion_ddot": 0,
        "tle_line1": "1 45854U 20041A   25353.24073836 -.00000064  00000+0  00000+0 0  9993",
        "tle_line2": "2 45854  56.5512  35.9326 0060610 203.6529 154.7875  2.00561972 40429"
      },
      "geometry": {
        "type": "Point",
        "coordinates": [
          34.97356111540239,
          -1.4239734749560424
        ]
      }
    },
    {
      "type": "Feature",
      "properties": {
        "norad_id": 46114,
        "name": "GALAXY 30 (WAAS/PRN 135)",
        "group": "gnss",
        "lat": 0.01624368760917158,
        "lon": 49.555985602859735,
        "alt_km": 35792.06030794662,
        "timestamp": "2025-12-20T05:41:50.273968+00:00",
        "meta_object_name": "GALAXY 30 (WAAS/PRN 135)",
        "meta_object_id": "2020-056C",
        "meta_epoch": "2025-12-19T13:12:02.202336",
        "meta_mean_motion": 1.00273015,
        "meta_eccentricity": 0.0002025,
        "meta_inclination": 0.0093,
        "meta_ra_of_asc_node": 38.0786,
        "meta_arg_of_pericenter": 233.5866,
        "meta_mean_anomaly": 249.7539,
        "meta_ephemeris_type": 0,
        "meta_classification_type": "U",
        "meta_norad_cat_id": 46114,
        "meta_element_set_no": 999,
        "meta_rev_at_epoch": 1949,
        "meta_bstar": 0,
        "meta_mean_motion_dot": 6.1e-07,
        "meta_mean_motion_ddot": 0,
        "tle_line1": "1 46114U 20056C   25353.55002549  .00000061  00000+0  00000+0 0  9992",
        "tle_line2": "2 46114   0.0093  38.0786 0002025 233.5866 249.7539  1.00273015 19495"
      },
      "geometry": {
        "type": "Point",
        "coordinates": [
          49.555985602859735,
          0.01624368760917158
        ]
      }
    },
    {
      "type": "Feature",
      "properties": {
        "norad_id": 46805,
        "name": "COSMOS 2547 (705K)",
        "group": "gnss",
        "lat": 53.49904792535434,
        "lon": -121.5695357618769,
        "alt_km": 19139.12362340213,
        "timestamp": "2025-12-20T05:41:50.273987+00:00",
        "meta_object_name": "COSMOS 2547 (705K)",
        "meta_object_id": "2020-075A",
        "meta_epoch": "2025-12-19T05:12:13.762080",
        "meta_mean_motion": 2.13100175,
        "meta_eccentricity": 0.0006125,
        "meta_inclination": 64.5965,
        "meta_ra_of_asc_node": 198.4802,
        "meta_arg_of_pericenter": 227.9307,
        "meta_mean_anomaly": 132.0972,
        "meta_ephemeris_type": 0,
        "meta_classification_type": "U",
        "meta_norad_cat_id": 46805,
        "meta_element_set_no": 999,
        "meta_rev_at_epoch": 4007,
        "meta_bstar": 0,
        "meta_mean_motion_dot": 1.06e-06,
        "meta_mean_motion_ddot": 0,
        "tle_line1": "1 46805U 20075A   25353.21682595  .00000106  00000+0  00000+0 0  9998",
        "tle_line2": "2 46805  64.5965 198.4802 0006125 227.9307 132.0972  2.13100175 40071"
      },
      "geometry": {
        "type": "Point",
        "coordinates": [
          -121.5695357618769,
          53.49904792535434
        ]
      }
    },
    {
      "type": "Feature",
      "properties": {
        "norad_id": 46826,
        "name": "GPS BIII-4  (PRN 14)",
        "group": "gnss",
        "lat": -24.05012484553259,
        "lon": -160.86661193036608,
        "alt_km": 20286.17575451023,
        "timestamp": "2025-12-20T05:41:50.274005+00:00",
        "meta_object_name": "GPS BIII-4  (PRN 14)",
        "meta_object_id": "2020-078A",
        "meta_epoch": "2025-12-16T01:06:13.902336",
        "meta_mean_motion": 2.00566891,
        "meta_eccentricity": 0.0064755,
        "meta_inclination": 54.0145,
        "meta_ra_of_asc_node": 218.2068,
        "meta_arg_of_pericenter": 203.3828,
        "meta_mean_anomaly": 339.3936,
        "meta_ephemeris_type": 0,
        "meta_classification_type": "U",
        "meta_norad_cat_id": 46826,
        "meta_element_set_no": 999,
        "meta_rev_at_epoch": 3783,
        "meta_bstar": 0,
        "meta_mean_motion_dot": 6.7e-07,
        "meta_mean_motion_ddot": 0,
        "tle_line1": "1 46826U 20078A   25350.04599424  .00000067  00000+0  00000+0 0  9996",
        "tle_line2": "2 46826  54.0145 218.2068 0064755 203.3828 339.3936  2.00566891 37831"
      },
      "geometry": {
        "type": "Point",
        "coordinates": [
          -160.86661193036608,
          -24.05012484553259
        ]
      }
    },
    {
      "type": "Feature",
      "properties": {
        "norad_id": 48859,
        "name": "GPS BIII-5  (PRN 11)",
        "group": "gnss",
        "lat": 21.153308662947317,
        "lon": 144.06353946590352,
        "alt_km": 20168.918659059455,
        "timestamp": "2025-12-20T05:41:50.274023+00:00",
        "meta_object_name": "GPS BIII-5  (PRN 11)",
        "meta_object_id": "2021-054A",
        "meta_epoch": "2025-12-08T04:14:32.423424",
        "meta_mean_motion": 2.00553627,
        "meta_eccentricity": 0.0024678,
        "meta_inclination": 55.2581,
        "meta_ra_of_asc_node": 340.1367,
        "meta_arg_of_pericenter": 233.3994,
        "meta_mean_anomaly": 212.8593,
        "meta_ephemeris_type": 0,
        "meta_classification_type": "U",
        "meta_norad_cat_id": 48859,
        "meta_element_set_no": 999,
        "meta_rev_at_epoch": 3292,
        "meta_bstar": 0,
        "meta_mean_motion_dot": -8.6e-07,
        "meta_mean_motion_ddot": 0,
        "tle_line1": "1 48859U 21054A   25342.17676416 -.00000086  00000+0  00000+0 0  9993",
        "tle_line2": "2 48859  55.2581 340.1367 0024678 233.3994 212.8593  2.00553627 32922"
      },
      "geometry": {
        "type": "Point",
        "coordinates": [
          144.06353946590352,
          21.153308662947317
        ]
      }
    }
  ]
}